0 COSMOS 2080 (GLONASS)
1 20620U 90045B   13285.24634934  .00000080  00000-0  00000+0 0  4129
2 20620 064.3349 107.4966 0017159 037.9094 321.4985 02.13103449182144
0 COSMOS 2080 (GLONASS)
1 20620U 90045B   13290.88341073  .00000056  00000-0  00000+0 0  4138
2 20620 064.3366 107.3019 0017112 038.3564 325.6455 02.13103590182276
0 COSMOS 2080 (GLONASS)
1 20620U 90045B   13294.64182914  .00000030  00000-0  00000+0 0  4146
2 20620 064.3377 107.1722 0017084 038.4448 328.9120 02.13103541182357
